OBJECT_NAME,OBJECT_ID,EPOCH,MEAN_MOTION,ECCENTRICITY,INCLINATION,RA_OF_ASC_NODE,ARG_OF_PERICENTER,MEAN_ANOMALY,EPHEMERIS_TYPE,CLASSIFICATION_TYPE,NORAD_CAT_ID,ELEMENT_SET_NO,REV_AT_EPOCH,BSTAR,MEAN_MOTION_DOT,MEAN_MOTION_DDOT
SKYSAT-C1,2016-040C,2026-07-11T15:19:14.131200,15.36708815,.0000645,96.9557,223.0369,355.4804,4.6435,0,U,41601,999,56162,.15588995E-3,.5514E-4,0
LAPAN-A3,2016-040E,2026-07-13T07:08:25.030752,15.33270300,.00082768,97.1503,189.5895,284.5908,75.4417,0,U,41603,999,55881,.63531028E-4,.1969E-4,0
GAOFEN-3,2016-049A,2026-07-13T07:24:43.877088,14.42218927,.00017918,98.4014,201.7005,86.1635,273.9759,0,U,41727,999,52241,.52558851E-4,.13E-5,0
SKYSAT-C4,2016-058B,2026-07-12T14:11:16.089216,15.49378795,.0003375,96.9166,214.3113,121.6663,238.4919,0,U,41771,999,54940,.21392E-3,.11647E-3,0
SKYSAT-C5,2016-058C,2026-07-12T16:00:08.751744,15.33697336,.00022621,97.0459,233.1668,167.5326,192.5974,0,U,41772,999,54765,.14076646E-3,.4512E-4,0
SKYSAT-C2,2016-058D,2026-07-12T13:29:11.076000,15.42640053,.0001849,97.0160,214.7089,5.3443,354.7825,0,U,41773,999,54896,.18376E-3,.792E-4,0
SKYSAT-C3,2016-058E,2026-07-12T15:47:28.423968,15.53626037,.00024137,96.8992,223.5415,136.6705,223.4740,0,U,41774,999,55006,.24693351E-3,.15667E-3,0
ALSAT-1B,2016-059C,2026-07-13T08:06:39.117600,14.72294830,.00101933,97.7754,201.9730,135.0740,225.1295,0,U,41785,999,52442,.83182849E-4,.479E-5,0
PATHFINDER 1,2016-059E,2026-07-13T07:35:18.910176,14.67691901,.00297345,97.8176,192.4142,121.4291,238.9828,0,U,41787,999,52354,.60990384E-4,.303E-5,0
SCATSAT 1,2016-059H,2026-07-12T17:01:39.059904,14.79583421,.00550526,98.1179,257.7377,164.4981,195.7932,0,U,41790,999,10536,.9598631E-4,.68E-5,0
GOKTURK 1A,2016-073A,2026-07-13T07:22:47.681184,14.62792687,.00014318,98.1224,88.5692,77.9957,282.1406,0,U,41875,999,51264,.63490259E-4,.277E-5,0
RESOURCESAT-2A,2016-074A,2026-07-13T07:45:44.693280,14.21608981,.00024954,98.7527,267.6129,33.3344,326.7990,0,U,41877,999,49801,.13049098E-3,.242E-5,0
CARTOSAT-2D,2017-008A,2026-07-13T07:21:11.227680,15.19275804,.00058014,97.4098,253.1221,144.7732,215.3887,0,U,41948,999,52154,.11195202E-3,.2294E-4,0
SENTINEL-2B,2017-013A,2026-07-13T06:59:38.751072,14.30814236,.0001217,98.5691,268.6965,91.3642,268.7680,0,U,42063,999,48837,-.33236927E-4,-.131E-5,0
CARTOSAT-2E,2017-036C,2026-07-13T07:46:43.182624,15.19244924,.00030805,97.4265,253.6938,194.9998,165.1146,0,U,42767,999,50211,.11048729E-3,.226E-4,0
FORMOSAT-5,2017-049A,2026-07-13T06:12:45.948960,14.50907523,.0011461,98.2247,268.9886,9.7389,350.4026,0,U,42920,999,47045,.22353679E-4,.45E-6,0
SENTINEL-5P,2017-064A,2026-07-13T06:45:35.582112,14.19523086,.0001102,98.7929,136.2282,92.7195,267.4107,0,U,42969,999,45326,.19924038E-4,-.2E-7,0
SKYSAT-C11,2017-068A,2026-07-13T07:35:48.695712,15.59252022,.00010748,97.4370,344.3152,158.8590,201.2711,0,U,42987,999,48731,.24809907E-3,.19386E-3,0
SKYSAT-C10,2017-068B,2026-07-12T21:55:58.393920,15.35089047,.0001412,97.4529,331.0233,109.5205,250.6191,0,U,42988,999,48630,.22091887E-3,.744E-4,0
SKYSAT-C9,2017-068C,2026-07-13T07:52:16.229568,15.42184723,.00088009,97.4449,332.6299,50.8893,309.3135,0,U,42989,999,48678,.18594349E-3,.7895E-4,0
SKYSAT-C8,2017-068D,2026-07-12T23:25:13.596384,15.37465076,.00012358,97.4545,330.9850,101.6418,258.4966,0,U,42990,999,48627,.19717626E-3,.716E-4,0
SKYSAT-C7,2017-068E,2026-07-12T21:43:27.525216,15.37415204,.00059008,97.4558,331.9045,29.1187,331.0385,0,U,42991,999,48632,.19128832E-3,.6935E-4,0
SKYSAT-C6,2017-068F,2026-07-12T23:24:33.638112,15.34147028,.00051392,97.4595,331.8393,94.7511,265.4318,0,U,42992,999,48627,.18567285E-3,.6056E-4,0
CARTOSAT-2F,2018-004A,2026-07-13T06:58:46.612128,15.19263559,.00025738,97.4783,253.6687,139.7372,220.4054,0,U,43111,999,47129,.14906876E-3,.3074E-4,0
GAOFEN-1 02,2018-031A,2026-07-13T07:44:28.830624,14.76469028,.0001588,98.0522,256.7747,298.7297,61.3752,0,U,43259,999,44655,.16620095E-4,.64E-6,0
GAOFEN-1 03,2018-031B,2026-07-13T07:12:55.454112,14.76460985,.00025578,98.0505,256.6085,20.9571,339.1743,0,U,43260,999,44654,.57224669E-4,.347E-5,0
GAOFEN-1 04,2018-031D,2026-07-13T06:37:57.091872,14.76470467,.00013769,98.0523,256.7784,58.4177,301.7167,0,U,43262,999,44653,.10387089E-3,.671E-5,0
SENTINEL-3B,2018-039A,2026-07-13T04:59:20.825952,14.26735949,.00010933,98.6237,261.3653,119.4777,240.6513,0,U,43437,999,42783,.18273141E-4,.1E-7,0
GAOFEN-5 01,2018-043A,2026-07-12T21:18:43.579296,14.60622425,.00022279,98.4588,166.0166,36.7715,323.3637,0,U,43461,999,43544,.38748174E-4,.139E-5,0
GAOFEN-6,2018-048A,2026-07-13T07:10:15.945024,14.76382514,.00121595,98.0966,256.9962,87.1697,273.0904,0,U,43484,999,43724,.54656386E-4,.328E-5,0
